NORAD_CAT_ID,OBJECT_NAME,OBJECT_TYPE,EPOCH,MEAN_MOTION,ECCENTRICITY,INCLINATION,RA_OF_ASC_NODE,ARG_OF_PERICENTER,MEAN_ANOMALY,BSTAR,MEAN_MOTION_DOT,MEAN_MOTION_DDOT,TLE_LINE0,TLE_LINE1,TLE_LINE2,SEMIMAJOR_AXIS,PERIOD,APOGEE,PERIGEE,DECAYED
56796.0,STARLINK-6049,PAYLOAD,2024-01-19 12:07:44,14.98331089,0.0002594,70.0014,151.6813,260.9919,99.0947,3.8166e-05,3.62e-06,0.0,0 STARLINK-6049,1 56796U 23078AF  24019.50537664  .00000362  00000-0  38166-4 0  9994,2 56796  70.0014 151.6813 0002594 260.9919  99.0947 14.98331089 36078,6950.19,96.107,573.857,570.252,0.0
56796.0,STARLINK-6049,PAYLOAD,2024-01-19 13:43:52,14.98331059,0.0002592,70.0014,151.513,260.9032,99.1834,3.7183e-05,3.51e-06,0.0,0 STARLINK-6049,1 56796U 23078AF  24019.57213656  .00000351  00000-0  37183-4 0  9999,2 56796  70.0014 151.5130 0002592 260.9032  99.1834 14.98331059 35828,6950.19,96.107,573.856,570.253,0.0
56796.0,STARLINK-6049,PAYLOAD,2024-01-19 18:32:16,14.98333364,0.0002575,70.0015,151.0084,260.6864,99.4004,6.0138e-05,6.25e-06,0.0,0 STARLINK-6049,1 56796U 23078AF  24019.77241416  .00000625  00000-0  60138-4 0  9996,2 56796  70.0015 151.0084 0002575 260.6864  99.4004 14.98333364 35859,6950.182,96.107,573.837,570.258,0.0
56796.0,STARLINK-6049,PAYLOAD,2024-01-20 12:09:45,14.98326256,0.0002454,70.0019,149.1578,258.0708,102.0176,-4.8133e-05,-6.67e-06,0.0,0 STARLINK-6049,1 56796U 23078AF  24020.50678149 -.00000667  00000-0 -48133-4 0  9995,2 56796  70.0019 149.1578 0002454 258.0708 102.0176 14.98326256 36228,6950.204,96.107,573.775,570.364,0.0
56796.0,STARLINK-6049,PAYLOAD,2024-01-20 13:45:54,14.9832613,0.0002451,70.0019,148.9894,257.9765,102.1119,-4.8104e-05,-6.67e-06,0.0,0 STARLINK-6049,1 56796U 23078AF  24020.57354172 -.00000667  00000-0 -48104-4 0  9997,2 56796  70.0019 148.9894 0002451 257.9765 102.1119 14.98326130 35974,6950.205,96.107,573.773,570.366,0.0
56796.0,STARLINK-6049,PAYLOAD,2024-01-20 18:34:18,14.98323117,0.0002545,70.0017,148.4838,261.1066,98.9805,-8.7717e-05,-1.139e-05,0.0,0 STARLINK-6049,1 56796U 23078AF  24020.77382549 -.00001139  00000-0 -87717-4 0  9996,2 56796  70.0017 148.4838 0002545 261.1066  98.9805 14.98323117 36001,6950.214,96.107,573.848,570.31,0.0
56796.0,STARLINK-6049,PAYLOAD,2024-01-21 12:11:46,14.98334925,0.000287,70.001,146.631,269.4785,90.6045,1.5209e-05,8.9e-07,0.0,0 STARLINK-6049,1 56796U 23078AF  24021.50817507  .00000089  00000-0  15209-4 0  9993,2 56796  70.0010 146.6310 0002870 269.4785  90.6045 14.98334925 36373,6950.178,96.107,574.037,570.048,0.0
56796.0,STARLINK-6049,PAYLOAD,2024-01-21 18:36:18,14.98340021,0.0002792,70.0012,145.9579,269.4001,90.6838,7.6238e-05,8.17e-06,0.0,0 STARLINK-6049,1 56796U 23078AF  24021.77520909  .00000817  00000-0  76238-4 0  9997,2 56796  70.0012 145.9579 0002792 269.4001  90.6838 14.98340021 36158,6950.162,96.106,573.967,570.086,0.0
56796.0,STARLINK-6049,PAYLOAD,2024-01-22 07:25:23,14.98327371,0.0002329,70.0023,144.6119,264.6207,95.4686,0.00013106,1.471e-05,0.0,0 STARLINK-6049,1 56796U 23078AF  24022.30929438  .00001471  00000-0  13106-3 0  9998,2 56796  70.0023 144.6119 0002329 264.6207  95.4686 14.98327371 36233,6950.201,96.107,573.685,570.447,0.0
56796.0,STARLINK-6049,PAYLOAD,2024-01-22 12:13:47,14.98323393,0.0002507,70.0018,144.1065,264.9238,95.1635,7.2233e-05,7.69e-06,0.0,0 STARLINK-6049,1 56796U 23078AF  24022.50957860  .00000769  00000-0  72233-4 0  9996,2 56796  70.0018 144.1065 0002507 264.9238  95.1635 14.98323393 36520,6950.213,96.107,573.821,570.336,0.0
56796.0,STARLINK-6049,PAYLOAD,2024-01-22 17:02:11,14.9832455,0.0002543,70.0017,143.6016,266.9218,93.165,8.4551e-05,9.16e-06,0.0,0 STARLINK-6049,1 56796U 23078AF  24022.70985825  .00000916  00000-0  84551-4 0  9990,2 56796  70.0017 143.6016 0002543 266.9218  93.1650 14.98324550 36294,6950.21,96.107,573.842,570.307,0.0
56796.0,STARLINK-6049,PAYLOAD,2024-01-23 12:15:48,14.98334974,0.0002636,70.0016,141.5819,258.3184,101.7679,-1.8118e-05,-3.09e-06,0.0,0 STARLINK-6049,1 56796U 23078AF  24023.51097248 -.00000309  00000-0 -18118-4 0  9997,2 56796  70.0016 141.5819 0002636 258.3184 101.7679 14.98334974 36671,6950.178,96.107,573.875,570.21,0.0
56796.0,STARLINK-6049,PAYLOAD,2024-01-23 15:28:02,14.98402917,0.0003022,70.0016,141.2457,254.3651,105.7174,-0.0011691,-0.00014041,0.0,0 STARLINK-6049,1 56796U 23078AF  24023.64447624 -.00014041  00000-0 -11691-2 0  9993,2 56796  70.0016 141.2457 0003022 254.3651 105.7174 14.98402917 36690,6949.967,96.102,573.933,569.732,0.0
56796.0,STARLINK-6049,PAYLOAD,2024-01-23 17:04:10,14.98404852,0.000302,70.0017,141.0778,253.9277,106.155,-0.0011849,-0.0001423,0.0,0 STARLINK-6049,1 56796U 23078AF  24023.71123266 -.00014230  00000-0 -11849-2 0  9999,2 56796  70.0017 141.0778 0003020 253.9277 106.1550 14.98404852 36448,6949.961,96.102,573.925,569.728,0.0
56796.0,STARLINK-6049,PAYLOAD,2024-01-24 12:17:49,14.98318315,0.0002578,70.0021,139.0599,249.1373,110.9511,7.8102e-05,8.39e-06,0.0,0 STARLINK-6049,1 56796U 23078AF  24024.51237897  .00000839  00000-0  78102-4 0  9999,2 56796  70.0021 139.0599 0002578 249.1373 110.9511 14.98318315 36822,6950.229,96.108,573.886,570.302,0.0
56796.0,STARLINK-6049,PAYLOAD,2024-01-24 13:53:57,14.98334391,0.0002324,70.0024,138.8917,246.17,113.9216,-0.00016844,-2.102e-05,0.0,0 STARLINK-6049,1 56796U 23078AF  24024.57913582 -.00002102  00000-0 -16844-3 0  9998,2 56796  70.0024 138.8917 0002324 246.1700 113.9216 14.98334391 36575,6950.179,96.107,573.66,570.429,0.0
56796.0,STARLINK-6049,PAYLOAD,2024-01-24 17:06:13,14.9834158,0.0002553,70.0018,138.5544,254.3025,105.7853,-0.00034091,-4.159e-05,0.0,0 STARLINK-6049,1 56796U 23078AF  24024.71265507 -.00004159  00000-0 -34091-3 0  9999,2 56796  70.0018 138.5544 0002553 254.3025 105.7853 14.98341580 36851,6950.157,96.106,573.796,570.248,0.0
56796.0,STARLINK-6049,PAYLOAD,2024-01-25 13:55:58,14.98326479,0.0002658,70.0014,136.3657,257.9678,102.1184,-1.7086e-05,-2.97e-06,0.0,0 STARLINK-6049,1 56796U 23078AF  24025.58053941 -.00000297  00000-0 -17086-4 0  9997,2 56796  70.0014 136.3657 0002658 257.9678 102.1184 14.98326479 36721,6950.204,96.107,573.916,570.221,0.0
56796.0,STARLINK-6049,PAYLOAD,2024-01-25 17:08:14,14.98333557,0.0002524,70.0014,136.0292,251.0868,109.0018,-9.6652e-05,-1.246e-05,0.0,0 STARLINK-6049,1 56796U 23078AF  24025.71405699 -.00001246  00000-0 -96652-4 0  9994,2 56796  70.0014 136.0292 0002524 251.0868 109.0018 14.98333557 36740,6950.182,96.107,573.801,570.293,0.0
56796.0,STARLINK-6049,PAYLOAD,2024-01-26 13:57:59,14.98325991,0.0002427,70.0011,133.8398,253.1554,106.9339,9.7383e-05,1.069e-05,0.0,0 STARLINK-6049,1 56796U 23078AF  24026.58193808  .00001069  00000-0  97383-4 0  9999,2 56796  70.0011 133.8398 0002427 253.1554 106.9339 14.98325991 36875,6950.205,96.107,573.757,570.383,0.0
56796.0,STARLINK-6049,PAYLOAD,2024-01-26 17:10:15,14.98326889,0.0002469,70.0011,133.5035,256.6446,103.4437,0.00013383,1.504e-05,0.0,0 STARLINK-6049,1 56796U 23078AF  24026.71545684  .00001504  00000-0  13383-3 0  9998,2 56796  70.0011 133.5035 0002469 256.6446 103.4437 14.98326889 37154,6950.203,96.107,573.784,570.352,0.0
56796.0,STARLINK-6049,PAYLOAD,2024-01-27 14:00:00,14.98332659,0.0002623,70.001,131.3153,258.4675,101.619,5.7425e-05,5.92e-06,0.0,0 STARLINK-6049,1 56796U 23078AF  24027.58333414  .00000592  00000-0  57425-4 0  9992,2 56796  70.0010 131.3153 0002623 258.4675 101.6190 14.98332659 37020,6950.185,96.107,573.873,570.227,0.0
56796.0,STARLINK-6049,PAYLOAD,2024-01-27 17:12:16,14.98332972,0.0002625,70.0009,130.9784,261.7922,98.294,5.7351e-05,5.91e-06,0.0,0 STARLINK-6049,1 56796U 23078AF  24027.71685389  .00000591  00000-0  57351-4 0  9995,2 56796  70.0009 130.9784 0002625 261.7922  98.2940 14.98332972 37300,6950.184,96.107,573.873,570.224,0.0
56796.0,STARLINK-6049,PAYLOAD,2024-01-28 14:02:01,14.98330293,0.0002838,70.0005,128.7898,261.9957,98.088,-3.0159e-05,-4.53e-06,0.0,0 STARLINK-6049,1 56796U 23078AF  24028.58473693 -.00000453  00000-0 -30159-4 0  9990,2 56796  70.0005 128.7898 0002838 261.9957  98.0880 14.98330293 37173,6950.192,96.107,574.029,570.085,0.0
56796.0,STARLINK-6049,PAYLOAD,2024-01-28 15:38:09,14.98330686,0.000283,70.0007,128.6222,259.5892,100.4949,-2.9046e-05,-4.4e-06,0.0,0 STARLINK-6049,1 56796U 23078AF  24028.65149610 -.00000440  00000-0 -29046-4 0  9996,2 56796  70.0007 128.6222 0002830 259.5892 100.4949 14.98330686 37189,6950.191,96.107,574.023,570.089,0.0
56796.0,STARLINK-6049,PAYLOAD,2024-01-29 10:51:45,14.98337634,0.000279,70.0011,126.6027,260.3658,99.7186,2.1437e-05,1.63e-06,0.0,0 STARLINK-6049,1 56796U 23078AF  24029.45260848  .00000163  00000-0  21437-4 0  9998,2 56796  70.0011 126.6027 0002790 260.3658  99.7186 14.98337634 37565,6950.169,96.107,573.973,570.095,0.0
56796.0,STARLINK-6049,PAYLOAD,2024-01-29 12:27:53,14.98337354,0.0002791,70.001,126.4343,259.6948,100.3896,1.8841e-05,1.32e-06,0.0,0 STARLINK-6049,1 56796U 23078AF  24029.51936837  .00000132  00000-0  18841-4 0  9994,2 56796  70.0010 126.4343 0002791 259.6948 100.3896 14.98337354 37316,6950.17,96.107,573.975,570.095,0.0
56796.0,STARLINK-6049,PAYLOAD,2024-01-30 10:53:46,14.98324116,0.0002658,70.0014,124.0779,248.805,111.2825,5.5691e-06,-2.6e-07,0.0,0 STARLINK-6049,1 56796U 23078AF  24030.45401547 -.00000026  00000-0  55691-5 0  9992,2 56796  70.0014 124.0779 0002658 248.8050 111.2825 14.98324116 37712,6950.211,96.107,573.923,570.229,0.0
56796.0,STARLINK-6049,PAYLOAD,2024-01-30 14:06:03,14.98322864,0.0002822,70.0009,123.7405,259.1877,100.8965,-3.0641e-05,-4.58e-06,0.0,0 STARLINK-6049,1 56796U 23078AF  24030.58753808 -.00000458  00000-0 -30641-4 0  9993,2 56796  70.0009 123.7405 0002822 259.1877 100.8965 14.98322864 37473,6950.215,96.107,574.041,570.119,0.0
56796.0,STARLINK-6049,PAYLOAD,2024-01-30 17:18:19,14.98323897,0.0002795,70.0011,123.4047,255.3904,104.6945,-1.457e-05,-2.67e-06,0.0,0 STARLINK-6049,1 56796U 23078AF  24030.72105739 -.00000267  00000-0 -14570-4 0  9994,2 56796  70.0011 123.4047 0002795 255.3904 104.6945 14.98323897 37492,6950.212,96.107,574.019,570.134,0.0
